start=new Date('2023-06-27T00:00:00.000Z').valueOf();
sats=[{"CLASSIFICATION_TYPE":"U","TLE_LINE2":"2 47914  53.0544  34.0266 0001106  85.9627 274.1488 15.06440826126755","FILE":"3943156","RA_OF_ASC_NODE":"34.0266","EPOCH":"2023-06-26T08:01:33.614112","BSTAR":"0.00113160000000","REF_FRAME":"TEME","MEAN_ANOMALY":"274.1488","NORAD_CAT_ID":"47914","DECAY_DATE":null,"ARG_OF_PERICENTER":"85.9627","ELEMENT_SET_NO":"999","OBJECT_NAME":"STARLINK-2375","PERIOD":"95.590","MEAN_MOTION":"15.06440826","TIME_SYSTEM":"UTC","SEMIMAJOR_AXIS":"6925.223","APOAPSIS":"547.854","ECCENTRICITY":"0.00011060","SITE":"AFETR","PERIAPSIS":"546.323","MEAN_MOTION_DOT":"0.00016632","REV_AT_EPOCH":"12675","TLE_LINE1":"1 47914U 21021BG  23177.33441683  .00016632  00000-0  11316-2 0  9995","OBJECT_TYPE":"PAYLOAD","CENTER_NAME":"EARTH","LAUNCH_DATE":"2021-03-14","RCS_SIZE":"LARGE","COUNTRY_CODE":"US","EPHEMERIS_TYPE":"0","OBJECT_ID":"2021-021BG","INCLINATION":"53.0544","GP_ID":"234561508","MEAN_ELEMENT_THEORY":"SGP4","MEAN_MOTION_DDOT":"0.0000000000000"},{"EPHEMERIS_TYPE":"0","RCS_SIZE":"LARGE","COUNTRY_CODE":"US","GP_ID":"234574962","MEAN_MOTION_DDOT":"0.0000000000000","MEAN_ELEMENT_THEORY":"SGP4","OBJECT_ID":"2021-021BH","INCLINATION":"53.0548","SITE":"AFETR","PERIAPSIS":"546.208","MEAN_MOTION_DOT":"0.00008908","TIME_SYSTEM":"UTC","SEMIMAJOR_AXIS":"6925.363","ECCENTRICITY":"0.00014730","APOAPSIS":"548.248","TLE_LINE1":"1 47915U 21021BH  23177.59843579  .00008908  00000-0  61624-3 0  9999","REV_AT_EPOCH":"12686","OBJECT_TYPE":"PAYLOAD","LAUNCH_DATE":"2021-03-14","CENTER_NAME":"EARTH","ARG_OF_PERICENTER":"78.8580","ELEMENT_SET_NO":"999","OBJECT_NAME":"STARLINK-2376","NORAD_CAT_ID":"47915","MEAN_ANOMALY":"281.2575","DECAY_DATE":null,"PERIOD":"95.592","MEAN_MOTION":"15.06395211","EPOCH":"2023-06-26T14:21:44.852256","BSTAR":"0.00061624000000","CLASSIFICATION_TYPE":"U","TLE_LINE2":"2 47915  53.0548  27.8439 0001473  78.8580 281.2575 15.06395211126863","FILE":"3943703","RA_OF_ASC_NODE":"27.8439","REF_FRAME":"TEME"},{"MEAN_MOTION":"15.06386858","PERIOD":"95.593","DECAY_DATE":null,"MEAN_ANOMALY":"255.1494","NORAD_CAT_ID":"47916","OBJECT_NAME":"STARLINK-2378","ARG_OF_PERICENTER":"104.9618","ELEMENT_SET_NO":"999","REF_FRAME":"TEME","RA_OF_ASC_NODE":"12.3636","TLE_LINE2":"2 47916  53.0552  12.3636 0001110 104.9618 255.1494 15.06386858127091","FILE":"3943666","CLASSIFICATION_TYPE":"U","BSTAR":"-0.00031801000000","EPOCH":"2023-06-26T16:55:00.401664","INCLINATION":"53.0552","OBJECT_ID":"2021-021BJ","MEAN_ELEMENT_THEORY":"SGP4","MEAN_MOTION_DDOT":"0.0000000000000","GP_ID":"234574515","COUNTRY_CODE":"US","RCS_SIZE":"LARGE","EPHEMERIS_TYPE":"0","CENTER_NAME":"EARTH","LAUNCH_DATE":"2021-03-14","OBJECT_TYPE":"PAYLOAD","TLE_LINE1":"1 47916U 21021BJ  23177.70486576 -.00005013  00000-0 -31801-3 0  9993","REV_AT_EPOCH":"12709","ECCENTRICITY":"0.00011100","APOAPSIS":"548.023","SEMIMAJOR_AXIS":"6925.389","TIME_SYSTEM":"UTC","MEAN_MOTION_DOT":"-0.00005013","PERIAPSIS":"546.485","SITE":"AFETR"},{"GP_ID":"234570297","MEAN_ELEMENT_THEORY":"SGP4","MEAN_MOTION_DDOT":"0.0000000000000","OBJECT_ID":"2021-021BK","INCLINATION":"53.0532","EPHEMERIS_TYPE":"0","COUNTRY_CODE":"US","RCS_SIZE":"LARGE","OBJECT_TYPE":"PAYLOAD","REV_AT_EPOCH":"12695","TLE_LINE1":"1 47917U 21021BK  23177.71131758 -.00004363  00000-0 -27443-3 0  9998","CENTER_NAME":"EARTH","LAUNCH_DATE":"2021-03-14","SITE":"AFETR","MEAN_MOTION_DOT":"-0.00004363","PERIAPSIS":"546.144","SEMIMAJOR_AXIS":"6925.443","TIME_SYSTEM":"UTC","ECCENTRICITY":"0.00016810","APOAPSIS":"548.472","MEAN_MOTION":"15.06369172","PERIOD":"95.594","ARG_OF_PERICENTER":"87.7800","ELEMENT_SET_NO":"999","OBJECT_NAME":"STARLINK-2397","NORAD_CAT_ID":"47917","MEAN_ANOMALY":"272.3381","DECAY_DATE":null,"REF_FRAME":"TEME","EPOCH":"2023-06-26T17:04:17.838912","BSTAR":"-0.00027443000000","CLASSIFICATION_TYPE":"U","TLE_LINE2":"2 47917  53.0532  22.3384 0001681  87.7800 272.3381 15.06369172126955","RA_OF_ASC_NODE":"22.3384","FILE":"3943488"},{"EPHEMERIS_TYPE":"0","RCS_SIZE":"LARGE","COUNTRY_CODE":"US","MEAN_MOTION_DDOT":"0.0000000000000","MEAN_ELEMENT_THEORY":"SGP4","GP_ID":"234569812","INCLINATION":"53.0554","OBJECT_ID":"2021-021BL","PERIAPSIS":"546.443","MEAN_MOTION_DOT":"0.00017274","SITE":"AFETR","ECCENTRICITY":"0.00011500","APOAPSIS":"548.036","SEMIMAJOR_AXIS":"6925.374","TIME_SYSTEM":"UTC","CENTER_NAME":"EARTH","LAUNCH_DATE":"2021-03-14","TLE_LINE1":"1 47918U 21021BL  23177.71869113  .00017274  00000-0  11760-2 0  9999","REV_AT_EPOCH":"12695","OBJECT_TYPE":"PAYLOAD","OBJECT_NAME":"STARLINK-2398","ELEMENT_SET_NO":"999","ARG_OF_PERICENTER":"106.2811","DECAY_DATE":null,"MEAN_ANOMALY":"253.8305","NORAD_CAT_ID":"47918","PERIOD":"95.593","MEAN_MOTION":"15.06391599","BSTAR":"0.00117600000000","EPOCH":"2023-06-26T17:14:54.913632","TLE_LINE2":"2 47918  53.0554  22.3038 0001150 106.2811 253.8305 15.06391599126954","FILE":"3943489","RA_OF_ASC_NODE":"22.3038","CLASSIFICATION_TYPE":"U","REF_FRAME":"TEME"},{"TLE_LINE1":"1 47919U 21021BM  23177.63667968 -.00004413  00000-0 -27764-3 0  9990","REV_AT_EPOCH":"12678","OBJECT_TYPE":"PAYLOAD","LAUNCH_DATE":"2021-03-14","CENTER_NAME":"EARTH","TIME_SYSTEM":"UTC","SEMIMAJOR_AXIS":"6925.383","APOAPSIS":"548.369","ECCENTRICITY":"0.00016190","SITE":"AFETR","PERIAPSIS":"546.127","MEAN_MOTION_DOT":"-0.00004413","OBJECT_ID":"2021-021BM","INCLINATION":"53.0554","GP_ID":"234569817","MEAN_MOTION_DDOT":"0.0000000000000","MEAN_ELEMENT_THEORY":"SGP4","RCS_SIZE":"LARGE","COUNTRY_CODE":"US","EPHEMERIS_TYPE":"0","REF_FRAME":"TEME","CLASSIFICATION_TYPE":"U","TLE_LINE2":"2 47919  53.0554  32.6723 0001619  99.4609 260.6563 15.06388756126782","FILE":"3943489","RA_OF_ASC_NODE":"32.6723","EPOCH":"2023-06-26T15:16:49.124352","BSTAR":"-0.00027764000000","PERIOD":"95.593","MEAN_MOTION":"15.06388756","NORAD_CAT_ID":"47919","MEAN_ANOMALY":"260.6563","DECAY_DATE":null,"ARG_OF_PERICENTER":"99.4609","ELEMENT_SET_NO":"999","OBJECT_NAME":"STARLINK-2405"},{"INCLINATION":"53.0514","OBJECT_ID":"2021-024A","MEAN_ELEMENT_THEORY":"SGP4","MEAN_MOTION_DDOT":"0.0000000000000","GP_ID":"234572412","COUNTRY_CODE":"US","RCS_SIZE":"LARGE","EPHEMERIS_TYPE":"0","LAUNCH_DATE":"2021-03-24","CENTER_NAME":"EARTH","OBJECT_TYPE":"PAYLOAD","REV_AT_EPOCH":"12542","TLE_LINE1":"1 47977U 21024A   23177.71177871  .00015255  00000-0  10410-2 0  9998","ECCENTRICITY":"0.00021230","APOAPSIS":"548.706","TIME_SYSTEM":"UTC","SEMIMAJOR_AXIS":"6925.371","MEAN_MOTION_DOT":"0.00015255","PERIAPSIS":"545.765","SITE":"AFETR","MEAN_MOTION":"15.06392832","PERIOD":"95.593","DECAY_DATE":null,"NORAD_CAT_ID":"47977","MEAN_ANOMALY":"277.1551","OBJECT_NAME":"STARLINK-2087","ARG_OF_PERICENTER":"82.9680","ELEMENT_SET_NO":"999","REF_FRAME":"TEME","TLE_LINE2":"2 47977  53.0514  77.3358 0002123  82.9680 277.1551 15.06392832125429","FILE":"3943585","RA_OF_ASC_NODE":"77.3358","CLASSIFICATION_TYPE":"U","BSTAR":"0.00104100000000","EPOCH":"2023-06-26T17:04:57.680544"},{"EPHEMERIS_TYPE":"0","RCS_SIZE":"LARGE","COUNTRY_CODE":"US","GP_ID":"234564995","MEAN_ELEMENT_THEORY":"SGP4","MEAN_MOTION_DDOT":"0.0000000000000","OBJECT_ID":"2021-024B","INCLINATION":"53.0531","SITE":"AFETR","PERIAPSIS":"546.327","MEAN_MOTION_DOT":"0.00028460","SEMIMAJOR_AXIS":"6925.222","TIME_SYSTEM":"UTC","ECCENTRICITY":"0.00010980","APOAPSIS":"547.847","TLE_LINE1":"1 47978U 21024B   23177.13583538  .00028460  00000-0  19197-2 0  9999","REV_AT_EPOCH":"12518","OBJECT_TYPE":"PAYLOAD","LAUNCH_DATE":"2021-03-24","CENTER_NAME":"EARTH","ARG_OF_PERICENTER":"109.9936","ELEMENT_SET_NO":"999","OBJECT_NAME":"STARLINK-1647","NORAD_CAT_ID":"47978","MEAN_ANOMALY":"250.1171","DECAY_DATE":null,"PERIOD":"95.590","MEAN_MOTION":"15.06441324","EPOCH":"2023-06-26T03:15:36.176832","BSTAR":"0.00191970000000","CLASSIFICATION_TYPE":"U","TLE_LINE2":"2 47978  53.0531  89.9200 0001098 109.9936 250.1171 15.06441324125181","FILE":"3943296","RA_OF_ASC_NODE":"89.9200","REF_FRAME":"TEME"},{"EPHEMERIS_TYPE":"0","COUNTRY_CODE":"US","RCS_SIZE":"LARGE","GP_ID":"234565491","MEAN_MOTION_DDOT":"0.0000000000000","MEAN_ELEMENT_THEORY":"SGP4","OBJECT_ID":"2021-024C","INCLINATION":"53.0552","SITE":"AFETR","MEAN_MOTION_DOT":"0.00005462","PERIAPSIS":"546.202","TIME_SYSTEM":"UTC","SEMIMAJOR_AXIS":"6925.308","ECCENTRICITY":"0.00014010","APOAPSIS":"548.143","OBJECT_TYPE":"PAYLOAD","TLE_LINE1":"1 47979U 21024C   23177.27268313  .00005462  00000-0  38516-3 0  9990","REV_AT_EPOCH":"12612","CENTER_NAME":"EARTH","LAUNCH_DATE":"2021-03-24","ELEMENT_SET_NO":"999","ARG_OF_PERICENTER":"85.1211","OBJECT_NAME":"STARLINK-2325","NORAD_CAT_ID":"47979","MEAN_ANOMALY":"274.9938","DECAY_DATE":null,"MEAN_MOTION":"15.06413395","PERIOD":"95.591","EPOCH":"2023-06-26T06:32:39.822432","BSTAR":"0.00038516000000","CLASSIFICATION_TYPE":"U","TLE_LINE2":"2 47979  53.0552  24.3124 0001401  85.1211 274.9938 15.06413395126129","RA_OF_ASC_NODE":"24.3124","FILE":"3943296","REF_FRAME":"TEME"},{"TLE_LINE2":"2 47980  53.0550   2.5526 0001171 110.5281 249.5834 15.06379460126450","FILE":"3943586","RA_OF_ASC_NODE":"2.5526","CLASSIFICATION_TYPE":"U","BSTAR":"0.00081947000000","EPOCH":"2023-06-26T16:35:08.275200","REF_FRAME":"TEME","DECAY_DATE":null,"MEAN_ANOMALY":"249.5834","NORAD_CAT_ID":"47980","OBJECT_NAME":"STARLINK-2312","ELEMENT_SET_NO":"999","ARG_OF_PERICENTER":"110.5281","MEAN_MOTION":"15.06379460","PERIOD":"95.593","ECCENTRICITY":"0.00011710","APOAPSIS":"548.087","SEMIMAJOR_AXIS":"6925.412","TIME_SYSTEM":"UTC","MEAN_MOTION_DOT":"0.00011939","PERIAPSIS":"546.466","SITE":"AFETR","CENTER_NAME":"EARTH","LAUNCH_DATE":"2021-03-24","OBJECT_TYPE":"PAYLOAD","REV_AT_EPOCH":"12645","TLE_LINE1":"1 47980U 21024D   23177.69106800  .00011939  00000-0  81947-3 0  9992","COUNTRY_CODE":"US","RCS_SIZE":"LARGE","EPHEMERIS_TYPE":"0","INCLINATION":"53.0550","OBJECT_ID":"2021-024D","MEAN_MOTION_DDOT":"0.0000000000000","MEAN_ELEMENT_THEORY":"SGP4","GP_ID":"234572444"}];
